{
  "type": "FeatureCollection",
  "features": [
    {
      "type": "Feature",
      "properties": {
        "norad_id": 52912,
        "name": "GAOFEN-12 03",
        "group": "resource",
        "lat": -5.000820606506505,
        "lon": -112.7695532304376,
        "alt_km": 633.3261588929627,
        "timestamp": "2025-12-25T11:37:44.079538+00:00",
        "meta_object_name": "GAOFEN-12 03",
        "meta_object_id": "2022-069A",
        "meta_epoch": "2025-12-25T05:09:34.698816",
        "meta_mean_motion": 14.79639088,
        "meta_eccentricity": 0.0001839,
        "meta_inclination": 97.8477,
        "meta_ra_of_asc_node": 246.2757,
        "meta_arg_of_pericenter": 48.4007,
        "meta_mean_anomaly": 311.7362,
        "meta_ephemeris_type": 0,
        "meta_classification_type": "U",
        "meta_norad_cat_id": 52912,
        "meta_element_set_no": 999,
        "meta_rev_at_epoch": 18888,
        "meta_bstar": 0.00019521,
        "meta_mean_motion_dot": 1.413e-05,
        "meta_mean_motion_ddot": 0,
        "tle_line1": "1 52912U 22069A   25359.21498494  .00001413  00000+0  19521-3 0  9992",
        "tle_line2": "2 52912  97.8477 246.2757 0001839  48.4007 311.7362 14.79639088188881"
      },
      "geometry": {
        "type": "Point",
        "coordinates": [
          -112.7695532304376,
          -5.000820606506505
        ]
      }
    },
    {
      "type": "Feature",
      "properties": {
        "norad_id": 54754,
        "name": "SWOT",
        "group": "resource",
        "lat": -61.79124535211347,
        "lon": -114.40478555531615,
        "alt_km": 900.4526405039078,
        "timestamp": "2025-12-25T11:37:44.079548+00:00",
        "meta_object_name": "SWOT",
        "meta_object_id": "2022-173A",
        "meta_epoch": "2025-12-25T03:21:42.276096",
        "meta_mean_motion": 14.00168703,
        "meta_eccentricity": 4.12e-05,
        "meta_inclination": 77.6108,
        "meta_ra_of_asc_node": 270.2512,
        "meta_arg_of_pericenter": 82.1498,
        "meta_mean_anomaly": 277.97,
        "meta_ephemeris_type": 0,
        "meta_classification_type": "U",
        "meta_norad_cat_id": 54754,
        "meta_element_set_no": 999,
        "meta_rev_at_epoch": 15479,
        "meta_bstar": 7.9798e-05,
        "meta_mean_motion_dot": 1.15e-06,
        "meta_mean_motion_ddot": 0,
        "tle_line1": "1 54754U 22173A   25359.14007264  .00000115  00000+0  79798-4 0  9998",
        "tle_line2": "2 54754  77.6108 270.2512 0000412  82.1498 277.9700 14.00168703154792"
      },
      "geometry": {
        "type": "Point",
        "coordinates": [
          -114.40478555531615,
          -61.79124535211347
        ]
      }
    },
    {
      "type": "Feature",
      "properties": {
        "norad_id": 57654,
        "name": "GAOFEN-12 04",
        "group": "resource",
        "lat": 10.692632286582942,
        "lon": 96.55365817509602,
        "alt_km": 631.6851976093294,
        "timestamp": "2025-12-25T11:37:44.079558+00:00",
        "meta_object_name": "GAOFEN-12 04",
        "meta_object_id": "2023-123A",
        "meta_epoch": "2025-12-25T04:22:32.636352",
        "meta_mean_motion": 14.79734899,
        "meta_eccentricity": 0.0001207,
        "meta_inclination": 97.9128,
        "meta_ra_of_asc_node": 274.7512,
        "meta_arg_of_pericenter": 79.9075,
        "meta_mean_anomaly": 280.2273,
        "meta_ephemeris_type": 0,
        "meta_classification_type": "U",
        "meta_norad_cat_id": 57654,
        "meta_element_set_no": 999,
        "meta_rev_at_epoch": 12689,
        "meta_bstar": 0.00019457,
        "meta_mean_motion_dot": 1.411e-05,
        "meta_mean_motion_ddot": 0,
        "tle_line1": "1 57654U 23123A   25359.18232218  .00001411  00000+0  19457-3 0  9994",
        "tle_line2": "2 57654  97.9128 274.7512 0001207  79.9075 280.2273 14.79734899126891"
      },
      "geometry": {
        "type": "Point",
        "coordinates": [
          96.55365817509602,
          10.692632286582942
        ]
      }
    },
    {
      "type": "Feature",
      "properties": {
        "norad_id": 59065,
        "name": "PARS 1",
        "group": "resource",
        "lat": 41.30816457482825,
        "lon": 157.3079781055739,
        "alt_km": 441.1971126443523,
        "timestamp": "2025-12-25T11:37:44.079568+00:00",
        "meta_object_name": "PARS 1",
        "meta_object_id": "2024-039Q",
        "meta_epoch": "2025-12-25T04:47:58.356672",
        "meta_mean_motion": 15.4125446,
        "meta_eccentricity": 0.0011538,
        "meta_inclination": 97.4655,
        "meta_ra_of_asc_node": 330.3999,
        "meta_arg_of_pericenter": 34.1291,
        "meta_mean_anomaly": 326.0695,
        "meta_ephemeris_type": 0,
        "meta_classification_type": "U",
        "meta_norad_cat_id": 59065,
        "meta_element_set_no": 999,
        "meta_rev_at_epoch": 10180,
        "meta_bstar": 0.00032155,
        "meta_mean_motion_dot": 0.0001332,
        "meta_mean_motion_ddot": 0,
        "tle_line1": "1 59065U 24039Q   25359.19998098  .00013320  00000+0  32155-3 0  9997",
        "tle_line2": "2 59065  97.4655 330.3999 0011538  34.1291 326.0695 15.41254460101800"
      },
      "geometry": {
        "type": "Point",
        "coordinates": [
          157.3079781055739,
          41.30816457482825
        ]
      }
    },
    {
      "type": "Feature",
      "properties": {
        "norad_id": 59371,
        "name": "RESURS-P 4",
        "group": "resource",
        "lat": -48.12625646208288,
        "lon": 117.38318524965294,
        "alt_km": 476.6263845063004,
        "timestamp": "2025-12-25T11:37:44.079578+00:00",
        "meta_object_name": "RESURS-P 4",
        "meta_object_id": "2024-061A",
        "meta_epoch": "2025-12-25T04:21:53.365824",
        "meta_mean_motion": 15.32194589,
        "meta_eccentricity": 8.02e-05,
        "meta_inclination": 97.2564,
        "meta_ra_of_asc_node": 305.2584,
        "meta_arg_of_pericenter": 81.9367,
        "meta_mean_anomaly": 278.1966,
        "meta_ephemeris_type": 0,
        "meta_classification_type": "U",
        "meta_norad_cat_id": 59371,
        "meta_element_set_no": 999,
        "meta_rev_at_epoch": 9711,
        "meta_bstar": 0.00014128,
        "meta_mean_motion_dot": 4.315e-05,
        "meta_mean_motion_ddot": 0,
        "tle_line1": "1 59371U 24061A   25359.18186766  .00004315  00000+0  14128-3 0  9996",
        "tle_line2": "2 59371  97.2564 305.2584 0000802  81.9367 278.1966 15.32194589 97115"
      },
      "geometry": {
        "type": "Point",
        "coordinates": [
          117.38318524965294,
          -48.12625646208288
        ]
      }
    },
    {
      "type": "Feature",
      "properties": {
        "norad_id": 59625,
        "name": "LEGION 1",
        "group": "resource",
        "lat": 77.98547727011737,
        "lon": -67.62129180154747,
        "alt_km": 511.1427566804896,
        "timestamp": "2025-12-25T11:37:44.079588+00:00",
        "meta_object_name": "LEGION 1",
        "meta_object_id": "2024-081A",
        "meta_epoch": "2025-12-25T03:16:28.704576",
        "meta_mean_motion": 15.16599527,
        "meta_eccentricity": 0.0003597,
        "meta_inclination": 97.5195,
        "meta_ra_of_asc_node": 73.669,
        "meta_arg_of_pericenter": 259.4164,
        "meta_mean_anomaly": 100.6664,
        "meta_ephemeris_type": 0,
        "meta_classification_type": "U",
        "meta_norad_cat_id": 59625,
        "meta_element_set_no": 999,
        "meta_rev_at_epoch": 9115,
        "meta_bstar": 0.00027361,
        "meta_mean_motion_dot": 5.279e-05,
        "meta_mean_motion_ddot": 0,
        "tle_line1": "1 59625U 24081A   25359.13644334  .00005279  00000+0  27361-3 0  9998",
        "tle_line2": "2 59625  97.5195  73.6690 0003597 259.4164 100.6664 15.16599527 91150"
      },
      "geometry": {
        "type": "Point",
        "coordinates": [
          -67.62129180154747,
          77.98547727011737
        ]
      }
    },
    {
      "type": "Feature",
      "properties": {
        "norad_id": 59626,
        "name": "LEGION 2",
        "group": "resource",
        "lat": -77.69831559329538,
        "lon": 111.38580368634125,
        "alt_km": 520.4072324406907,
        "timestamp": "2025-12-25T11:37:44.079598+00:00",
        "meta_object_name": "LEGION 2",
        "meta_object_id": "2024-081B",
        "meta_epoch": "2025-12-25T02:28:52.891680",
        "meta_mean_motion": 15.16611621,
        "meta_eccentricity": 0.0005791,
        "meta_inclination": 97.5198,
        "meta_ra_of_asc_node": 73.7243,
        "meta_arg_of_pericenter": 240.2159,
        "meta_mean_anomaly": 119.8499,
        "meta_ephemeris_type": 0,
        "meta_classification_type": "U",
        "meta_norad_cat_id": 59626,
        "meta_element_set_no": 999,
        "meta_rev_at_epoch": 9115,
        "meta_bstar": 0.00030479,
        "meta_mean_motion_dot": 5.892e-05,
        "meta_mean_motion_ddot": 0,
        "tle_line1": "1 59626U 24081B   25359.10338995  .00005892  00000+0  30479-3 0  9994",
        "tle_line2": "2 59626  97.5198  73.7243 0005791 240.2159 119.8499 15.16611621 91157"
      },
      "geometry": {
        "type": "Point",
        "coordinates": [
          111.38580368634125,
          -77.69831559329538
        ]
      }
    }
  ]
}